[{"OBJECT_NAME":"STARLINK-31024","OBJECT_ID":"2024-011X","EPOCH":"2026-03-09T06:25:22.512288","MEAN_MOTION":15.30191356,"ECCENTRICITY":0.00011607,"INCLINATION":53.1619,"RA_OF_ASC_NODE":13.6627,"ARG_OF_PERICENTER":88.5246,"MEAN_ANOMALY":271.5888,"EPHEMERIS_TYPE":0,"CLASSIFICATION_TYPE":"U","NORAD_CAT_ID":58786,"ELEMENT_SET_NO":999,"REV_AT_EPOCH":12023,"BSTAR":7.42271e-6,"MEAN_MOTION_DOT":-1.39e-6,"MEAN_MOTION_DDOT":0},{"OBJECT_NAME":"ARCSTONE","OBJECT_ID":"2025-135N","EPOCH":"2026-03-09T21:21:29.017152","MEAN_MOTION":15.28638458,"ECCENTRICITY":0.00041199,"INCLINATION":97.4495,"RA_OF_ASC_NODE":185.9194,"ARG_OF_PERICENTER":166.7863,"MEAN_ANOMALY":193.3485,"EPHEMERIS_TYPE":0,"CLASSIFICATION_TYPE":"U","NORAD_CAT_ID":64540,"ELEMENT_SET_NO":999,"REV_AT_EPOCH":3984,"BSTAR":0.00094899777,"MEAN_MOTION_DOT":0.00026427,"MEAN_MOTION_DDOT":0}]
